OBJECT_NAME,OBJECT_ID,EPOCH,MEAN_MOTION,ECCENTRICITY,INCLINATION,RA_OF_ASC_NODE,ARG_OF_PERICENTER,MEAN_ANOMALY,EPHEMERIS_TYPE,CLASSIFICATION_TYPE,NORAD_CAT_ID,ELEMENT_SET_NO,REV_AT_EPOCH,BSTAR,MEAN_MOTION_DOT,MEAN_MOTION_DDOT
CUBEBUG-2 (LO-74),2013-066AA,2024-10-06T14:51:14.843520,14.85458730,.0065015,97.8208,222.0492,269.6478,89.7287,0,U,39440,999,58606,.16614E-2,.14851E-3,0
FUNCUBE-1 (AO-73),2013-066AE,2024-10-06T15:23:21.282720,14.95019797,.004792,97.7327,237.7805,127.5005,233.0587,0,U,39444,999,58674,.20661E-2,.23127E-3,0
UWE-3,2013-066AG,2024-10-07T10:12:55.816128,14.88265735,.0056732,97.7919,228.9609,208.2394,151.5743,0,U,39446,999,58597,.1762E-2,.16744E-3,0
UNISAT-6,2014-033C,2024-10-06T10:44:09.663648,14.81521111,.005036,97.7162,78.5311,302.4497,57.1852,0,U,40012,999,55430,.14533E-2,.11612E-3,0
DUCHIFAT-1,2014-033M,2024-10-07T10:51:02.164896,15.12681967,.0015049,98.1000,271.4985,82.8169,277.4770,0,U,40021,999,56106,.31597E-2,.5575E-3,0
QB50P1,2014-033R,2024-10-07T03:24:05.576544,15.02844424,.0013024,98.0539,245.8798,152.6822,207.5089,0,U,40025,999,56018,.20342E-2,.2733E-3,0
KAITUO 1A,2015-049F,2024-10-07T11:41:44.534400,15.71632209,.0002663,97.4715,303.5914,212.1420,147.9681,0,U,40904,999,50191,.22343E-2,.296627E-2,0
XW-2C,2015-049H,2024-10-07T11:56:15.098208,15.55019521,.0004194,97.4694,302.0499,230.7013,129.3869,0,U,40906,999,50184,.16312E-2,.110721E-2,0
XW-2D,2015-049J,2024-10-07T02:16:12.182880,15.73796390,.0004217,97.4575,305.9870,189.2624,170.8563,0,U,40907,999,50213,.18986E-2,.275499E-2,0
LILACSAT-2,2015-049K,2024-10-07T12:18:10.619424,15.29935470,.0009747,97.5241,291.2882,323.6946,36.3632,0,U,40908,999,50064,.98857E-3,.2869E-3,0
XW-2B,2015-049N,2024-10-07T11:05:22.778880,15.71686786,.0003918,97.4559,306.2260,194.0813,166.0341,0,U,40911,999,50204,.19773E-2,.26204E-2,0
LAPAN-A2,2015-052B,2024-09-26T07:11:54.845376,14.78150863,.0012711,5.9998,350.0993,76.7416,283.4129,0,U,40931,999,48644,.19195E-3,.2074E-4,0
FOX-1A (AO-85),2015-058D,2024-10-06T16:03:20.744640,14.83854747,.0190069,64.7791,33.2895,270.4816,87.4517,0,U,40967,999,2152,.13331E-2,.15172E-3,0
CAS-2T & KS-1Q,2016-066G,2024-10-07T11:18:33.788160,14.41969808,.0351309,98.4494,351.9327,198.8801,159.9088,0,U,41847,999,41567,.11678E-2,.804E-4,0
ZHUHAI-1 02 (CAS-4B),2017-034B,2024-10-07T12:26:12.574176,15.35053032,.0011856,43.0160,308.9740,26.1643,333.9809,0,U,42759,999,40462,.16421E-2,.57335E-3,0
ZHUHAI-1 01 (CAS-4A),2017-034D,2024-10-07T12:12:39.906144,15.35221567,.0011787,43.0197,307.2731,37.6231,322.5446,0,U,42761,999,40463,.16717E-2,.587E-3,0
RADFXSAT (FOX-1B),2017-073E,2024-10-07T09:04:03.577152,14.96951205,.0198424,97.5553,153.0197,277.7726,80.1009,0,U,43017,999,37242,.1932E-2,.33329E-3,0
DIWATA-2B,2018-084H,2024-10-07T12:48:13.272480,14.96196877,.0009311,98.0852,82.9701,28.0693,332.1028,0,U,43678,999,32371,.68263E-3,.7644E-4,0
ES'HAIL 2,2018-090A,2024-10-06T19:59:44.192832,1.00270345,.0001059,0.0190,217.1857,344.9344,139.6341,0,U,43700,999,2147,0,.155E-5,0
FOX-1CLIFF (AO-95),2018-099N,2024-10-07T02:33:29.713824,15.09090469,.0012144,97.5315,336.7065,346.0260,14.0631,0,U,43770,999,31942,.19095E-2,.30354E-3,0
ITASAT,2018-099AE,2024-10-07T09:29:02.729472,15.06885932,.0015453,97.4958,335.5910,334.1943,25.8512,0,U,43786,999,31945,.17395E-2,.26049E-3,0
JY1SAT (JO-97),2018-099AX,2024-10-07T10:24:56.907936,15.11149733,.0007673,97.5061,337.7837,276.4015,83.6341,0,U,43803,999,31962,.22821E-2,.38406E-3,0
UWE-4,2018-111E,2024-10-07T11:41:56.556096,15.13866725,.0015087,97.5982,186.6081,353.8588,6.2456,0,U,43880,999,31439,.22245E-2,.40467E-3,0
DUCHIFAT-3,2019-089C,2024-10-07T10:59:41.547264,15.22786828,.0009145,36.9546,84.5899,334.0447,25.9842,0,U,44854,999,26528,.26397E-2,.63635E-3,0
TIANYAN 01,2019-093C,2024-10-07T12:10:47.661312,14.84373262,.0013172,97.8190,356.1138,319.5505,40.4729,0,U,44881,999,25970,.62425E-3,.52E-4,0
RS-44 & BREEZE-KM R/B,2019-096E,2024-10-06T19:59:10.102848,12.79734669,.0218088,82.5257,30.5736,149.9909,211.3903,0,U,44909,999,22325,.15871E-3,.52E-6,0
SALSAT,2020-068K,2024-10-06T21:06:46.933632,15.15959445,.0010753,97.8298,243.2501,296.4926,63.5202,0,U,46495,999,22121,.12057E-2,.23147E-3,0
UVSQ-SAT,2021-006AB,2024-10-07T03:10:28.595424,15.83231724,.0004542,97.3000,344.9557,204.9815,155.1235,0,U,47438,999,20618,.25833E-2,.592045E-2,0
LEDSAT,2021-073D,2024-10-07T10:58:42.973248,15.31677320,.0016076,97.4244,352.2312,243.1524,116.8074,0,U,49069,999,17359,.22573E-2,.69789E-3,0
XW-3 (CAS-9),2021-131B,2024-10-07T11:54:27.924192,14.40053612,.000494,98.5235,6.0418,141.5668,218.5872,0,U,50466,999,14616,.12237E-2,.3816E-4,0
