CUBEBUG-2 (LO-74)       
1 39440U 13066AA  24280.61892180  .00014851  00000+0  16614-2 0  9995
2 39440  97.8208 222.0492 0065015 269.6478  89.7287 14.85458730586067
FUNCUBE-1 (AO-73)       
1 39444U 13066AE  24280.64121855  .00023127  00000+0  20661-2 0  9999
2 39444  97.7327 237.7805 0047920 127.5005 233.0587 14.95019797586745
UWE-3                   
1 39446U 13066AG  24281.42564602  .00016744  00000+0  17620-2 0  9997
2 39446  97.7919 228.9609 0056732 208.2394 151.5743 14.88265735585976
UNISAT-6                
1 40012U 14033C   24280.44733407  .00011612  00000+0  14533-2 0  9994
2 40012  97.7162  78.5311 0050360 302.4497  57.1852 14.81521111554309
DUCHIFAT-1              
1 40021U 14033M   24281.45210839  .00055750  00000+0  31597-2 0  9995
2 40021  98.1000 271.4985 0015049  82.8169 277.4770 15.12681967561064
QB50P1                  
1 40025U 14033R   24281.14173121  .00027330  00000+0  20342-2 0  9996
2 40025  98.0539 245.8798 0013024 152.6822 207.5089 15.02844424560181
KAITUO 1A               
1 40904U 15049F   24281.48732100  .00296627  00000+0  22343-2 0  9995
2 40904  97.4715 303.5914 0002663 212.1420 147.9681 15.71632209501914
XW-2C                   
1 40906U 15049H   24281.49739697  .00110721  00000+0  16312-2 0  9995
2 40906  97.4694 302.0499 0004194 230.7013 129.3869 15.55019521501841
XW-2D                   
1 40907U 15049J   24281.09458545  .00275499  00000+0  18986-2 0  9995
2 40907  97.4575 305.9870 0004217 189.2624 170.8563 15.73796390502138
LILACSAT-2              
1 40908U 15049K   24281.51262291  .00028690  00000+0  98857-3 0  9999
2 40908  97.5241 291.2882 0009747 323.6946  36.3632 15.29935470500646
XW-2B                   
1 40911U 15049N   24281.46206920  .00262040  00000+0  19773-2 0  9992
2 40911  97.4559 306.2260 0003918 194.0813 166.0341 15.71686786502049
LAPAN-A2                
1 40931U 15052B   24270.29994034  .00002074  00000+0  19195-3 0  9995
2 40931   5.9998 350.0993 0012711  76.7416 283.4129 14.78150863486449
FOX-1A (AO-85)          
1 40967U 15058D   24280.66899010  .00015172  00000+0  13331-2 0  9998
2 40967  64.7791  33.2895 0190069 270.4816  87.4517 14.83854747 21528
CAS-2T & KS-1Q          
1 41847U 16066G   24281.47122440  .00008040  00000+0  11678-2 0  9990
2 41847  98.4494 351.9327 0351309 198.8801 159.9088 14.41969808415673
ZHUHAI-1 02 (CAS-4B)    
1 42759U 17034B   24281.51820109  .00057335  00000+0  16421-2 0  9993
2 42759  43.0160 308.9740 0011856  26.1643 333.9809 15.35053032404625
ZHUHAI-1 01 (CAS-4A)    
1 42761U 17034D   24281.50879521  .00058700  00000+0  16717-2 0  9992
2 42761  43.0197 307.2731 0011787  37.6231 322.5446 15.35221567404635
RADFXSAT (FOX-1B)       
1 43017U 17073E   24281.37781918  .00033329  00000+0  19320-2 0  9990
2 43017  97.5553 153.0197 0198424 277.7726  80.1009 14.96951205372421
DIWATA-2B               
1 43678U 18084H   24281.53348695  .00007644  00000+0  68263-3 0  9997
2 43678  98.0852  82.9701 0009311  28.0693 332.1028 14.96196877323714
ES'HAIL 2               
1 43700U 18090A   24280.83315038  .00000155  00000+0  00000+0 0  9998
2 43700   0.0190 217.1857 0001059 344.9344 139.6341  1.00270345 21476
FOX-1CLIFF (AO-95)      
1 43770U 18099N   24281.10659391  .00030354  00000+0  19095-2 0  9999
2 43770  97.5315 336.7065 0012144 346.0260  14.0631 15.09090469319423
ITASAT                  
1 43786U 18099AE  24281.39517048  .00026049  00000+0  17395-2 0  9996
2 43786  97.4958 335.5910 0015453 334.1943  25.8512 15.06885932319455
JY1SAT (JO-97)          
1 43803U 18099AX  24281.43399199  .00038406  00000+0  22821-2 0  9996
2 43803  97.5061 337.7837 0007673 276.4015  83.6341 15.11149733319625
UWE-4                   
1 43880U 18111E   24281.48746014  .00040467  00000+0  22245-2 0  9993
2 43880  97.5982 186.6081 0015087 353.8588   6.2456 15.13866725314393
DUCHIFAT-3              
1 44854U 19089C   24281.45811976  .00063635  00000+0  26397-2 0  9991
2 44854  36.9546  84.5899 0009145 334.0447  25.9842 15.22786828265289
TIANYAN 01              
1 44881U 19093C   24281.50749608  .00005200  00000+0  62425-3 0  9991
2 44881  97.8190 356.1138 0013172 319.5505  40.4729 14.84373262259709
RS-44 & BREEZE-KM R/B   
1 44909U 19096E   24280.83275582  .00000052  00000+0  15871-3 0  9998
2 44909  82.5257  30.5736 0218088 149.9909 211.3903 12.79734669223256
SALSAT                  
1 46495U 20068K   24280.87970988  .00023147  00000+0  12057-2 0  9999
2 46495  97.8298 243.2501 0010753 296.4926  63.5202 15.15959445221218
UVSQ-SAT                
1 47438U 21006AB  24281.13227541  .00592045  00000+0  25833-2 0  9994
2 47438  97.3000 344.9557 0004542 204.9815 155.1235 15.83231724206183
LEDSAT                  
1 49069U 21073D   24281.45744182  .00069789  00000+0  22573-2 0  9992
2 49069  97.4244 352.2312 0016076 243.1524 116.8074 15.31677320173596
XW-3 (CAS-9)            
1 50466U 21131B   24281.49615653  .00003816  00000+0  12237-2 0  9999
2 50466  98.5235   6.0418 0004940 141.5668 218.5872 14.40053612146169
